ONEWEB-0634             
1 56075U 23043AF  25078.70635872 -.00000106  00000+0 -31650-3 0  9991
2 56075  87.9139 349.7658 0001570  68.4722 291.6576 13.15547393 96648
ONEWEB-0635             
1 56076U 23043AG  25078.70159878 -.00000114  00000+0 -33700-3 0  9996
2 56076  87.9109 349.7772 0001994  87.3107 272.8251 13.15550541 96673
ONEWEB-0636             
1 56077U 23043AH  25078.69368281 -.00000012  00000+0 -65979-4 0  9996
2 56077  87.9120 349.7802 0001964  86.4421 273.6934 13.15547923 96652
ONEWEB-0637             
1 56078U 23043AJ  25078.76341298 -.00000033  00000+0 -12076-3 0  9996
2 56078  87.9138 349.7534 0001654  90.1144 270.0176 13.15549224 96682
ONEWEB-0647             
1 56079U 23043AK  25079.21499607  .00000122  00000+0  29117-3 0  9997
2 56079  87.9136 349.6759 0002002  80.6633 279.4724 13.15548205 96730
ONEWEB-0651             
1 56080U 23043AL  25079.21023273  .00000180  00000+0  44302-3 0  9998
2 56080  87.9139 349.6622 0001832  90.3837 269.7504 13.15546044 96735
ONEWEB-0718             
1 56081U 23043AM  25078.74914895  .00000171  00000+0  42046-3 0  9998
2 56081  87.9136 349.7378 0001421  69.3266 290.8017 13.15548018 96689
ONEWEB-0561             
1 56710U 23068A   25078.73278500 -.00000048  00000+0 -15062-3 0  9992
2 56710  87.9322   4.9227 0002314  91.0343 269.1055 13.20772854 89516
